[{"OBJECT_NAME":"STARLINK-1506","OBJECT_ID":"2020-038T","EPOCH":"2026-03-09T15:50:48.887520","MEAN_MOTION":15.26134655,"ECCENTRICITY":0.00025141,"INCLINATION":53.0733,"RA_OF_ASC_NODE":202.5028,"ARG_OF_PERICENTER":227.7836,"MEAN_ANOMALY":132.2949,"EPHEMERIS_TYPE":0,"CLASSIFICATION_TYPE":"U","NORAD_CAT_ID":45747,"ELEMENT_SET_NO":999,"REV_AT_EPOCH":31668,"BSTAR":0.0009799682,"MEAN_MOTION_DOT":0.0002538,"MEAN_MOTION_DDOT":0},{"OBJECT_NAME":"STARLINK-30886","OBJECT_ID":"2023-171S","EPOCH":"2026-03-09T22:00:01.999584","MEAN_MOTION":15.22897038,"ECCENTRICITY":0.00015613,"INCLINATION":43.0007,"RA_OF_ASC_NODE":283.7757,"ARG_OF_PERICENTER":289.0985,"MEAN_ANOMALY":343.9345,"EPHEMERIS_TYPE":0,"CLASSIFICATION_TYPE":"U","NORAD_CAT_ID":58246,"ELEMENT_SET_NO":999,"REV_AT_EPOCH":577,"BSTAR":0.048414578,"MEAN_MOTION_DOT":0.01267662,"MEAN_MOTION_DDOT":0}]
